ONEWEB-0721             
1 56725U 23068R   26170.48532713  .00000105  00000+0  21699-3 0  9998
2 56725  86.6766  84.7830 0001893  78.0447 282.0899 13.22469367158248
ONEWEB-0015             
1 61594U 24188A   26170.52206117 -.00000324  00000+0 -94872-3 0  9991
2 61594  87.8882  20.6282 0002124  73.1004 287.0356 13.11413883 84761
ONEWEB-0687             
1 61595U 24188B   26170.58480483 -.00000030  00000+0 -11056-3 0  9995
2 61595  87.9127   5.3994 0002350  85.8551 274.2850 13.17647922 86211
ONEWEB-0688             
1 61596U 24188C   26170.23380994  .00000009  00000+0 -98708-5 0  9990
2 61596  87.9127   5.4690 0002594  62.6048 297.5347 13.17649277 86168
ONEWEB-0689             
1 61597U 24188D   26170.55596692 -.00000004  00000+0 -47777-4 0  9995
2 61597  87.8899  20.5799 0002110  90.8436 269.2934 13.11419572 84769
ONEWEB-0690             
1 61598U 24188E   26170.56615931  .00000513  00000+0  14103-2 0  9993
2 61598  87.8892  20.5894 0001232  77.6631 282.4635 13.11417357 84947
ONEWEB-0691             
1 61599U 24188F   26170.56107393  .00000340  00000+0  92481-3 0  9996
2 61599  87.8904  20.4993 0002120  78.4223 281.7143 13.11419066 84792
ONEWEB-0692             
1 61600U 24188G   26170.58141781  .00000365  00000+0  99514-3 0  9991
2 61600  87.8884  20.6081 0001975 110.0247 250.1094 13.11414500 84780
ONEWEB-0693             
1 61601U 24188H   26170.09374841  .00000011  00000+0 -59223-5 0  9997
2 61601  87.9123   5.5170 0001245  69.1032 291.0233 13.17648596 86135
ONEWEB-0695             
1 61602U 24188J   26170.55768084  .00000201  00000+0  53002-3 0  9992
2 61602  87.8879  20.6046 0002154  99.0448 261.0924 13.11417889 84771
ONEWEB-0697             
1 61603U 24188K   26170.51359155  .00000069  00000+0  15770-3 0  9996
2 61603  87.8883  20.6039 0001882 110.4485 249.6845 13.11413998 84754
ONEWEB-0698             
1 61604U 24188L   26170.56785405  .00000530  00000+0  14603-2 0  9999
2 61604  87.8883  20.6070 0001070 123.9381 236.1849 13.11417050 84784
ONEWEB-0699             
1 61605U 24188M   26170.65884848 -.00000209  00000+0 -63458-3 0  9999
2 61605  87.8830  35.7744 0001710 105.3336 254.7980 13.10425741 83637
ONEWEB-0700             
1 61606U 24188N   26170.66052924  .00000556  00000+0  15557-2 0  9992
2 61606  87.8851  35.6829 0001942 103.4818 256.6526 13.10411982 83623
ONEWEB-0701             
1 61607U 24188P   26170.37183031 -.00001172  00000+0 -33942-2 0  9990
2 61607  87.8836  35.8307 0001731 109.6673 250.4641 13.10353139 83598
ONEWEB-0702             
1 61608U 24188Q   26170.30842760 -.00000714  00000+0 -20496-2 0  9996
2 61608  87.8902  20.5650 0002191 114.2948 245.8409 13.11417389 84762
ONEWEB-0704             
1 61609U 24188R   26170.05470461  .00001313  00000+0  37228-2 0  9999
2 61609  87.8846  35.8832 0002218 110.0158 250.1208 13.10391598 83530
ONEWEB-0705             
1 61610U 24188S   26170.36512924 -.00000375  00000+0 -11095-2 0  9999
2 61610  87.8843  35.8270 0002722  95.5558 264.5880 13.10376783 75744
ONEWEB-0706             
1 61611U 24188T   26170.65549399 -.00000763  00000+0 -22196-2 0  9993
2 61611  87.8837  35.7737 0002111  99.3922 260.7444 13.10437834 83708
ONEWEB-0707             
1 61612U 24188U   26170.66220687  .00000308  00000+0  84591-3 0  9992
2 61612  87.8840  35.7672 0002084  99.9574 260.1789 13.10408023 83646
ONEWEB-0708             
1 61613U 24188V   26170.68063316  .00000333  00000+0  91730-3 0  9990
2 61613  87.8833  35.7813 0002372  81.1722 278.9674 13.10328788 83621
