OBJECT_NAME,OBJECT_ID,EPOCH,MEAN_MOTION,ECCENTRICITY,INCLINATION,RA_OF_ASC_NODE,ARG_OF_PERICENTER,MEAN_ANOMALY,EPHEMERIS_TYPE,CLASSIFICATION_TYPE,NORAD_CAT_ID,ELEMENT_SET_NO,REV_AT_EPOCH,BSTAR,MEAN_MOTION_DOT,MEAN_MOTION_DDOT
ONEWEB-0721,2023-068R,2026-06-19T11:38:52.264032,13.22469367,.0001893,86.6766,84.7830,78.0447,282.0899,0,U,56725,999,15824,.21699292E-3,.105E-5,0
ONEWEB-0015,2024-188A,2026-06-19T12:31:46.085088,13.11413883,.00021241,87.8882,20.6282,73.1004,287.0356,0,U,61594,999,8476,-.94872099E-3,-.324E-5,0
ONEWEB-0687,2024-188B,2026-06-19T14:02:07.137312,13.17647922,.00023506,87.9127,5.3994,85.8551,274.2850,0,U,61595,999,8621,-.11055591E-3,-.3E-6,0
ONEWEB-0688,2024-188C,2026-06-19T05:36:41.178816,13.17649277,.00025943,87.9127,5.4690,62.6048,297.5347,0,U,61596,999,8616,-.987081E-5,.9E-7,0
ONEWEB-0689,2024-188D,2026-06-19T13:20:35.541888,13.11419572,.00021107,87.8899,20.5799,90.8436,269.2934,0,U,61597,999,8476,-.47776528E-4,-.4E-7,0
ONEWEB-0690,2024-188E,2026-06-19T13:35:16.164384,13.11417357,.00012322,87.8892,20.5894,77.6631,282.4635,0,U,61598,999,8494,.14102758E-2,.513E-5,0
ONEWEB-0691,2024-188F,2026-06-19T13:27:56.787552,13.11419066,.00021206,87.8904,20.4993,78.4223,281.7143,0,U,61599,999,8479,.92480601E-3,.34E-5,0
ONEWEB-0692,2024-188G,2026-06-19T13:57:14.498784,13.11414500,.00019758,87.8884,20.6081,110.0247,250.1094,0,U,61600,999,8478,.99514401E-3,.365E-5,0
ONEWEB-0693,2024-188H,2026-06-19T02:14:59.862624,13.17648596,.00012454,87.9123,5.5170,69.1032,291.0233,0,U,61601,999,8613,-.592226E-5,.11E-6,0
ONEWEB-0695,2024-188J,2026-06-19T13:23:03.624576,13.11417889,.0002154,87.8879,20.6046,99.0448,261.0924,0,U,61602,999,8477,.53002397E-3,.201E-5,0
ONEWEB-0697,2024-188K,2026-06-19T12:19:34.309920,13.11413998,.00018826,87.8883,20.6039,110.4485,249.6845,0,U,61603,999,8475,.15770044E-3,.69E-6,0
ONEWEB-0698,2024-188L,2026-06-19T13:37:42.589920,13.11417050,.00010701,87.8883,20.6070,123.9381,236.1849,0,U,61604,999,8478,.14602826E-2,.53E-5,0
ONEWEB-0699,2024-188M,2026-06-19T15:48:44.508672,13.10425741,.000171,87.8830,35.7744,105.3336,254.7980,0,U,61605,999,8363,-.63458E-3,-.209E-5,0
ONEWEB-0700,2024-188N,2026-06-19T15:51:09.726336,13.10411982,.0001942,87.8851,35.6829,103.4818,256.6526,0,U,61606,999,8362,.15557E-2,.556E-5,0
ONEWEB-0701,2024-188P,2026-06-19T08:55:26.138784,13.10353139,.00017317,87.8836,35.8307,109.6673,250.4641,0,U,61607,999,8359,-.33941805E-2,-.1172E-4,0
ONEWEB-0702,2024-188Q,2026-06-19T07:24:08.144640,13.11417389,.00021916,87.8902,20.5650,114.2948,245.8409,0,U,61608,999,8476,-.20495684E-2,-.714E-5,0
ONEWEB-0704,2024-188R,2026-06-19T01:18:46.478304,13.10391598,.00022188,87.8846,35.8832,110.0158,250.1208,0,U,61609,999,8353,.37228413E-2,.1313E-4,0
ONEWEB-0705,2024-188S,2026-06-19T08:45:47.166336,13.10376783,.00027225,87.8843,35.8270,95.5558,264.5880,0,U,61610,999,7574,-.11095151E-2,-.375E-5,0
ONEWEB-0706,2024-188T,2026-06-19T15:43:54.680736,13.10437834,.0002111,87.8837,35.7737,99.3922,260.7444,0,U,61611,999,8370,-.22196E-2,-.763E-5,0
ONEWEB-0707,2024-188U,2026-06-19T15:53:34.673568,13.10408023,.0002084,87.8840,35.7672,99.9574,260.1789,0,U,61612,999,8364,.84591E-3,.308E-5,0
ONEWEB-0708,2024-188V,2026-06-19T16:20:06.705024,13.10328788,.0002372,87.8833,35.7813,81.1722,278.9674,0,U,61613,999,8362,.9173E-3,.333E-5,0
